{"type": "FeatureCollection", "features": [ {"type": "Feature", "properties": {"norad_id": 60453, "name": "LEGION 4", "group": "resource", "lat": -21.664755627770123, "lon": -103.37402040578321, "alt_km": 520.7836927386643, "timestamp": "2025-12-10T14:53:36.780477+00:00", "meta": {"OBJECT_NAME": "LEGION 4", "OBJECT_ID": "2024-146B", "EPOCH": "2025-12-10T06:03:20.930112", "MEAN_MOTION": 15.15782568, "ECCENTRICITY": 0.00097, "INCLINATION": 45.0385, "RA_OF_ASC_NODE": 55.2104, "ARG_OF_PERICENTER": 298.2273, "MEAN_ANOMALY": 61.7626, "EPHEMERIS_TYPE": 0, "CLASSIFICATION_TYPE": "U", "NORAD_CAT_ID": 60453, "ELEMENT_SET_NO": 999, "REV_AT_EPOCH": 7220, "BSTAR": 0.00041073898, "MEAN_MOTION_DOT": 7.725e-05, "MEAN_MOTION_DDOT": 0}, "tle": {"line1": "1 60453U 24146B   25344.25232558  .00007725  00000+0  41074-3 0  9994", "line2": "2 60453  45.0385  55.2104 0009700 298.2273  61.7626 15.15782568 72208"}}, "geometry": {"type": "Point", "coordinates": [-103.37402040578321, -21.664755627770123]}}, {"type": "Feature", "properties": {"norad_id": 60989, "name": "SENTINEL-2C", "group": "resource", "lat": -71.9621979251435, "lon": -150.44590835142674, "alt_km": 797.0733843193575, "timestamp": "2025-12-10T14:53:36.780488+00:00", "meta": {"OBJECT_NAME": "SENTINEL-2C", "OBJECT_ID": "2024-157A", "EPOCH": "2025-12-10T05:19:05.739744", "MEAN_MOTION": 14.30816116, "ECCENTRICITY": 0.00012005, "INCLINATION": 98.5684, "RA_OF_ASC_NODE": 56.7404, "ARG_OF_PERICENTER": 98.0266, "MEAN_ANOMALY": 262.1053, "EPHEMERIS_TYPE": 0, "CLASSIFICATION_TYPE": "U", "NORAD_CAT_ID": 60989, "ELEMENT_SET_NO": 999, "REV_AT_EPOCH": 6596, "BSTAR": 0.0001157069, "MEAN_MOTION_DOT": 2.6e-06, "MEAN_MOTION_DDOT": 0}, "tle": {"line1": "1 60989U 24157A   25344.22159421  .00000260  00000+0  11571-3 0  9990", "line2": "2 60989  98.5684  56.7404 0001200  98.0266 262.1053 14.30816116 65960"}}, "geometry": {"type": "Point", "coordinates": [-150.44590835142674, -71.9621979251435]}}, {"type": "Feature", "properties": {"norad_id": 61735, "name": "IONOSFERA-M 1", "group": "resource", "lat": -41.59822050434262, "lon": 26.634345682812537, "alt_km": 823.4651633416725, "timestamp": "2025-12-10T14:53:36.780497+00:00", "meta": {"OBJECT_NAME": "IONOSFERA-M 1", "OBJECT_ID": "2024-199A", "EPOCH": "2025-12-10T07:06:04.597056", "MEAN_MOTION": 14.22713258, "ECCENTRICITY": 0.00010742, "INCLINATION": 98.7412, "RA_OF_ASC_NODE": 214.1629, "ARG_OF_PERICENTER": 25.1657, "MEAN_ANOMALY": 334.9573, "EPHEMERIS_TYPE": 0, "CLASSIFICATION_TYPE": "U", "NORAD_CAT_ID": 61735, "ELEMENT_SET_NO": 999, "REV_AT_EPOCH": 10084, "BSTAR": 8.0111859e-05, "MEAN_MOTION_DOT": 1.35e-06, "MEAN_MOTION_DDOT": 0}, "tle": {"line1": "1 61735U 24199A   25344.29588654  .00000135  00000+0  80112-4 0  9996", "line2": "2 61735  98.7412 214.1629 0001074  25.1657 334.9573 14.22713258100840"}}, "geometry": {"type": "Point", "coordinates": [26.634345682812537, -41.59822050434262]}}, {"type": "Feature", "properties": {"norad_id": 61736, "name": "IONOSFERA-M 2", "group": "resource", "lat": 44.00774794901123, "lon": -154.14845561072673, "alt_km": 812.0022687572136, "timestamp": "2025-12-10T14:53:36.780506+00:00", "meta": {"OBJECT_NAME": "IONOSFERA-M 2", "OBJECT_ID": "2024-199B", "EPOCH": "2025-12-10T06:14:41.993664", "MEAN_MOTION": 14.22715405, "ECCENTRICITY": 0.00015867, "INCLINATION": 98.7403, "RA_OF_ASC_NODE": 214.04, "ARG_OF_PERICENTER": 113.8592, "MEAN_ANOMALY": 246.2753, "EPHEMERIS_TYPE": 0, "CLASSIFICATION_TYPE": "U", "NORAD_CAT_ID": 61736, "ELEMENT_SET_NO": 999, "REV_AT_EPOCH": 10396, "BSTAR": 7.6021939e-05, "MEAN_MOTION_DOT": 1.26e-06, "MEAN_MOTION_DDOT": 0}, "tle": {"line1": "1 61736U 24199B   25344.26020826  .00000126  00000+0  76022-4 0  9991", "line2": "2 61736  98.7403 214.0400 0001586 113.8592 246.2753 14.22715405103965"}}, "geometry": {"type": "Point", "coordinates": [-154.14845561072673, 44.00774794901123]}}, {"type": "Feature", "properties": {"norad_id": 63772, "name": "BIOMASS", "group": "resource", "lat": -73.61374146417273, "lon": -39.187708627384566, "alt_km": 677.0941425110632, "timestamp": "2025-12-10T14:53:36.780515+00:00", "meta": {"OBJECT_NAME": "BIOMASS", "OBJECT_ID": "2025-090A", "EPOCH": "2025-12-10T02:16:38.800128", "MEAN_MOTION": 14.67536787, "ECCENTRICITY": 0.00012064, "INCLINATION": 98.07, "RA_OF_ASC_NODE": 169.1432, "ARG_OF_PERICENTER": 77.5553, "MEAN_ANOMALY": 282.5786, "EPHEMERIS_TYPE": 0, "CLASSIFICATION_TYPE": "U", "NORAD_CAT_ID": 63772, "ELEMENT_SET_NO": 999, "REV_AT_EPOCH": 3295, "BSTAR": 0.00037986643, "MEAN_MOTION_DOT": 2.106e-05, "MEAN_MOTION_DDOT": 0}, "tle": {"line1": "1 63772U 25090A   25344.09489352  .00002106  00000+0  37987-3 0  9994", "line2": "2 63772  98.0700 169.1432 0001206  77.5553 282.5786 14.67536787 32959"}}, "geometry": {"type": "Point", "coordinates": [-39.187708627384566, -73.61374146417273]}}, {"type": "Feature", "properties": {"norad_id": 64694, "name": "GOSAT-GW (IBUKI GW)", "group": "resource", "lat": 72.95078259674244, "lon": 127.62609443489828, "alt_km": 660.8940731075327, "timestamp": "2025-12-10T14:53:36.780524+00:00", "meta": {"OBJECT_NAME": "GOSAT-GW (IBUKI GW)", "OBJECT_ID": "2025-141A", "EPOCH": "2025-12-08T18:14:08.043648", "MEAN_MOTION": 14.67565462, "ECCENTRICITY": 0.00014946, "INCLINATION": 98.0423, "RA_OF_ASC_NODE": 278.345, "ARG_OF_PERICENTER": 82.5316, "MEAN_ANOMALY": 277.6059, "EPHEMERIS_TYPE": 0, "CLASSIFICATION_TYPE": "U", "NORAD_CAT_ID": 64694, "ELEMENT_SET_NO": 999, "REV_AT_EPOCH": 2391, "BSTAR": 0.00038232231, "MEAN_MOTION_DOT": 2.122e-05, "MEAN_MOTION_DDOT": 0}, "tle": {"line1": "1 64694U 25141A   25342.75981532  .00002122  00000+0  38232-3 0  9995", "line2": "2 64694  98.0423 278.3450 0001494  82.5316 277.6059 14.67565462 23916"}}, "geometry": {"type": "Point", "coordinates": [127.62609443489828, 72.95078259674244]}}, {"type": "Feature", "properties": {"norad_id": 64876, "name": "IONOSFERA-M 3", "group": "resource", "lat": 77.73897093221635, "lon": 170.53655130608706, "alt_km": 811.8415703046985, "timestamp": "2025-12-10T14:53:36.780533+00:00", "meta": {"OBJECT_NAME": "IONOSFERA-M 3", "OBJECT_ID": "2025-155A", "EPOCH": "2025-12-10T07:40:23.630880", "MEAN_MOTION": 14.21440073, "ECCENTRICITY": 0.00022901, "INCLINATION": 98.5779, "RA_OF_ASC_NODE": 306.2544, "ARG_OF_PERICENTER": 63.8834, "MEAN_ANOMALY": 296.2579, "EPHEMERIS_TYPE": 0, "CLASSIFICATION_TYPE": "U", "NORAD_CAT_ID": 64876, "ELEMENT_SET_NO": 999, "REV_AT_EPOCH": 1957, "BSTAR": 8.8027445e-05, "MEAN_MOTION_DOT": 1.5e-06, "MEAN_MOTION_DDOT": 0}, "tle": {"line1": "1 64876U 25155A   25344.31971795  .00000150  00000+0  88027-4 0  9993", "line2": "2 64876  98.5779 306.2544 0002290  63.8834 296.2579 14.21440073 19575"}}, "geometry": {"type": "Point", "coordinates": [170.53655130608706, 77.73897093221635]}}, {"type": "Feature", "properties": {"norad_id": 64877, "name": "IONOSFERA-M 4", "group": "resource", "lat": -77.31665980551298, "lon": -11.415485889570915, "alt_km": 828.775863085406, "timestamp": "2025-12-10T14:53:36.780542+00:00", "meta": {"OBJECT_NAME": "IONOSFERA-M 4", "OBJECT_ID": "2025-155B", "EPOCH": "2025-12-10T06:49:31.709856", "MEAN_MOTION": 14.21441214, "ECCENTRICITY": 0.00016482, "INCLINATION": 98.5778, "RA_OF_ASC_NODE": 306.1396, "ARG_OF_PERICENTER": 65.8639, "MEAN_ANOMALY": 294.2711, "EPHEMERIS_TYPE": 0, "CLASSIFICATION_TYPE": "U", "NORAD_CAT_ID": 64877, "ELEMENT_SET_NO": 999, "REV_AT_EPOCH": 1956, "BSTAR": 0.00010114186, "MEAN_MOTION_DOT": 1.78e-06, "MEAN_MOTION_DDOT": 0}, "tle": {"line1": "1 64877U 25155B   25344.28439479  .00000178  00000+0  10114-3 0  9999", "line2": "2 64877  98.5778 306.1396 0001648  65.8639 294.2711 14.21441214 19563"}}, "geometry": {"type": "Point", "coordinates": [-11.415485889570915, -77.31665980551298]}}, {"type": "Feature", "properties": {"norad_id": 64899, "name": "MICROCARB", "group": "resource", "lat": 47.58809830792299, "lon": 51.140843288092654, "alt_km": 652.9528730722559, "timestamp": "2025-12-10T14:53:36.780551+00:00", "meta": {"OBJECT_NAME": "MICROCARB", "OBJECT_ID": "2025-156A", "EPOCH": "2025-12-10T04:53:12.034464", "MEAN_MOTION": 14.72050749, "ECCENTRICITY": 0.00169776, "INCLINATION": 98.0028, "RA_OF_ASC_NODE": 59.5897, "ARG_OF_PERICENTER": 152.517, "MEAN_ANOMALY": 207.6939, "EPHEMERIS_TYPE": 0, "CLASSIFICATION_TYPE": "U", "NORAD_CAT_ID": 64899, "ELEMENT_SET_NO": 999, "REV_AT_EPOCH": 2016, "BSTAR": 0.00020125465, "MEAN_MOTION_DOT": 1.217e-05, "MEAN_MOTION_DDOT": 0}, "tle": {"line1": "1 64899U 25156A   25344.20361151  .00001217  00000+0  20125-3 0  9995", "line2": "2 64899  98.0028  59.5897 0016977 152.5170 207.6939 14.72050749 20163"}}, "geometry": {"type": "Point", "coordinates": [51.140843288092654, 47.58809830792299]}}, {"type": "Feature", "properties": {"norad_id": 64900, "name": "CO3D 3", "group": "resource", "lat": 80.00102378732771, "lon": 13.237273657864705, "alt_km": 496.9065675207221, "timestamp": "2025-12-10T14:53:36.780561+00:00", "meta": {"OBJECT_NAME": "CO3D 3", "OBJECT_ID": "2025-156B", "EPOCH": "2025-12-10T06:37:47.479008", "MEAN_MOTION": 15.20203521, "ECCENTRICITY": 0.00013736, "INCLINATION": 97.4339, "RA_OF_ASC_NODE": 60.6785, "ARG_OF_PERICENTER": 99.8457, "MEAN_ANOMALY": 260.2933, "EPHEMERIS_TYPE": 0, "CLASSIFICATION_TYPE": "U", "NORAD_CAT_ID": 64900, "ELEMENT_SET_NO": 999, "REV_AT_EPOCH": 2083, "BSTAR": 0.00069936536, "MEAN_MOTION_DOT": 0.00015104, "MEAN_MOTION_DDOT": 0}, "tle": {"line1": "1 64900U 25156B   25344.27624397  .00015104  00000+0  69937-3 0  9993", "line2": "2 64900  97.4339  60.6785 0001373  99.8457 260.2933 15.20203521 20833"}}, "geometry": {"type": "Point", "coordinates": [13.237273657864705, 80.00102378732771]}}]}